CCSDS_OMM_VERS = 2.0
CREATION_DATE  = 
ORIGINATOR     = 

OBJECT_NAME    = COSMOS 1933
OBJECT_ID      = 1988-020A
CENTER_NAME    = EARTH
REF_FRAME      = TEME
TIME_SYSTEM    = UTC
MEAN_ELEMENT_THEORY = SGP/SGP4

EPOCH          = 2026-01-03T07:39:55.310688
MEAN_MOTION    = 15.17341778
ECCENTRICITY   = .0006159
INCLINATION    = 82.5153
RA_OF_ASC_NODE = 315.5542
ARG_OF_PERICENTER = 73.6526
MEAN_ANOMALY   = 286.5384

EPHEMERIS_TYPE = 0
CLASSIFICATION_TYPE = U
NORAD_CAT_ID   = 18958
ELEMENT_SET_NO = 999
REV_AT_EPOCH   = 4031
BSTAR          = .41234E-3
MEAN_MOTION_DOT = .826E-4
MEAN_MOTION_DDOT = 0

CCSDS_OMM_VERS = 2.0
CREATION_DATE  = 
ORIGINATOR     = 

OBJECT_NAME    = SL-3 R/B
OBJECT_ID      = 1988-032B
CENTER_NAME    = EARTH
REF_FRAME      = TEME
TIME_SYSTEM    = UTC
MEAN_ELEMENT_THEORY = SGP/SGP4

EPOCH          = 2026-01-03T11:17:31.620768
MEAN_MOTION    = 15.19012312
ECCENTRICITY   = .0028468
INCLINATION    = 97.5096
RA_OF_ASC_NODE = 347.0457
ARG_OF_PERICENTER = 100.5687
MEAN_ANOMALY   = 259.8756

EPHEMERIS_TYPE = 0
CLASSIFICATION_TYPE = U
NORAD_CAT_ID   = 19046
ELEMENT_SET_NO = 999
REV_AT_EPOCH   = 4220
BSTAR          = .43699E-3
MEAN_MOTION_DOT = .9179E-4
MEAN_MOTION_DDOT = 0

CCSDS_OMM_VERS = 2.0
CREATION_DATE  = 
ORIGINATOR     = 

OBJECT_NAME    = SL-16 R/B
OBJECT_ID      = 1988-039B
CENTER_NAME    = EARTH
REF_FRAME      = TEME
TIME_SYSTEM    = UTC
MEAN_ELEMENT_THEORY = SGP/SGP4

EPOCH          = 2026-01-03T00:38:52.188288
MEAN_MOTION    = 14.19601682
ECCENTRICITY   = .00195531
INCLINATION    = 71.0133
RA_OF_ASC_NODE = 207.3891
ARG_OF_PERICENTER = 79.7087
MEAN_ANOMALY   = 280.6242

EPHEMERIS_TYPE = 0
CLASSIFICATION_TYPE = U
NORAD_CAT_ID   = 19120
ELEMENT_SET_NO = 999
REV_AT_EPOCH   = 94906
BSTAR          = .15165338E-3
MEAN_MOTION_DOT = .273E-5
MEAN_MOTION_DDOT = 0

CCSDS_OMM_VERS = 2.0
CREATION_DATE  = 
ORIGINATOR     = 

OBJECT_NAME    = COSMOS 1953
OBJECT_ID      = 1988-050A
CENTER_NAME    = EARTH
REF_FRAME      = TEME
TIME_SYSTEM    = UTC
MEAN_ELEMENT_THEORY = SGP/SGP4

EPOCH          = 2025-12-29T08:21:58.699584
MEAN_MOTION    = 15.27141359
ECCENTRICITY   = .00125356
INCLINATION    = 82.5080
RA_OF_ASC_NODE = 228.9139
ARG_OF_PERICENTER = 18.6006
MEAN_ANOMALY   = 341.5688

EPHEMERIS_TYPE = 0
CLASSIFICATION_TYPE = U
NORAD_CAT_ID   = 19210
ELEMENT_SET_NO = 999
REV_AT_EPOCH   = 2704
BSTAR          = .30113736E-3
MEAN_MOTION_DOT = .8063E-4
MEAN_MOTION_DDOT = 0

CCSDS_OMM_VERS = 2.0
CREATION_DATE  = 
ORIGINATOR     = 

OBJECT_NAME    = SL-8 R/B
OBJECT_ID      = 1988-053B
CENTER_NAME    = EARTH
REF_FRAME      = TEME
TIME_SYSTEM    = UTC
MEAN_ELEMENT_THEORY = SGP/SGP4

EPOCH          = 2026-01-03T00:46:58.652256
MEAN_MOTION    = 14.38874870
ECCENTRICITY   = .00190138
INCLINATION    = 74.0462
RA_OF_ASC_NODE = 233.4772
ARG_OF_PERICENTER = 69.5912
MEAN_ANOMALY   = 35.6236

EPHEMERIS_TYPE = 0
CLASSIFICATION_TYPE = U
NORAD_CAT_ID   = 19257
ELEMENT_SET_NO = 999
REV_AT_EPOCH   = 96715
BSTAR          = .1660766E-3
MEAN_MOTION_DOT = .486E-5
MEAN_MOTION_DDOT = 0

CCSDS_OMM_VERS = 2.0
CREATION_DATE  = 
ORIGINATOR     = 

OBJECT_NAME    = COSMOS 1975
OBJECT_ID      = 1988-093A
CENTER_NAME    = EARTH
REF_FRAME      = TEME
TIME_SYSTEM    = UTC
MEAN_ELEMENT_THEORY = SGP/SGP4

EPOCH          = 2026-01-03T11:26:08.342016
MEAN_MOTION    = 15.26841942
ECCENTRICITY   = .0012541
INCLINATION    = 82.5186
RA_OF_ASC_NODE = 183.0624
ARG_OF_PERICENTER = 43.9680
MEAN_ANOMALY   = 316.2554

EPHEMERIS_TYPE = 0
CLASSIFICATION_TYPE = U
NORAD_CAT_ID   = 19573
ELEMENT_SET_NO = 999
REV_AT_EPOCH   = 945
BSTAR          = .45944E-3
MEAN_MOTION_DOT = .12178E-3
MEAN_MOTION_DDOT = 0

CCSDS_OMM_VERS = 2.0
CREATION_DATE  = 
ORIGINATOR     = 

OBJECT_NAME    = SL-14 R/B
OBJECT_ID      = 1988-093B
CENTER_NAME    = EARTH
REF_FRAME      = TEME
TIME_SYSTEM    = UTC
MEAN_ELEMENT_THEORY = SGP/SGP4

EPOCH          = 2026-01-03T12:31:19.776288
MEAN_MOTION    = 14.85579587
ECCENTRICITY   = .0019327
INCLINATION    = 82.5319
RA_OF_ASC_NODE = 103.2275
ARG_OF_PERICENTER = 252.6148
MEAN_ANOMALY   = 118.0770

EPHEMERIS_TYPE = 0
CLASSIFICATION_TYPE = U
NORAD_CAT_ID   = 19574
ELEMENT_SET_NO = 999
REV_AT_EPOCH   = 99136
BSTAR          = .11541E-3
MEAN_MOTION_DOT = .1025E-4
MEAN_MOTION_DDOT = 0

CCSDS_OMM_VERS = 2.0
CREATION_DATE  = 
ORIGINATOR     = 

OBJECT_NAME    = SL-16 R/B
OBJECT_ID      = 1988-102B
CENTER_NAME    = EARTH
REF_FRAME      = TEME
TIME_SYSTEM    = UTC
MEAN_ELEMENT_THEORY = SGP/SGP4

EPOCH          = 2026-01-03T05:08:27.674880
MEAN_MOTION    = 14.16142276
ECCENTRICITY   = .001195
INCLINATION    = 71.0003
RA_OF_ASC_NODE = 289.2598
ARG_OF_PERICENTER = 114.8647
MEAN_ANOMALY   = 245.3720

EPHEMERIS_TYPE = 0
CLASSIFICATION_TYPE = U
NORAD_CAT_ID   = 19650
ELEMENT_SET_NO = 999
REV_AT_EPOCH   = 91762
BSTAR          = -.56519E-4
MEAN_MOTION_DOT = -.16E-5
MEAN_MOTION_DDOT = 0

CCSDS_OMM_VERS = 2.0
CREATION_DATE  = 
ORIGINATOR     = 

OBJECT_NAME    = INTERCOSMOS 24
OBJECT_ID      = 1989-080A
CENTER_NAME    = EARTH
REF_FRAME      = TEME
TIME_SYSTEM    = UTC
MEAN_ELEMENT_THEORY = SGP/SGP4

EPOCH          = 2026-01-03T10:22:07.875840
MEAN_MOTION    = 12.59476387
ECCENTRICITY   = .1188902
INCLINATION    = 82.6069
RA_OF_ASC_NODE = 146.8514
ARG_OF_PERICENTER = 84.2204
MEAN_ANOMALY   = 289.2899

EPHEMERIS_TYPE = 0
CLASSIFICATION_TYPE = U
NORAD_CAT_ID   = 20261
ELEMENT_SET_NO = 999
REV_AT_EPOCH   = 65858
BSTAR          = .25611E-3
MEAN_MOTION_DOT = .9E-5
MEAN_MOTION_DDOT = 0

CCSDS_OMM_VERS = 2.0
CREATION_DATE  = 
ORIGINATOR     = 

OBJECT_NAME    = SL-14 R/B
OBJECT_ID      = 1989-080C
CENTER_NAME    = EARTH
REF_FRAME      = TEME
TIME_SYSTEM    = UTC
MEAN_ELEMENT_THEORY = SGP/SGP4

EPOCH          = 2026-01-03T12:08:03.975648
MEAN_MOTION    = 12.50432309
ECCENTRICITY   = .1230156
INCLINATION    = 82.5912
RA_OF_ASC_NODE = 215.0458
ARG_OF_PERICENTER = 333.8454
MEAN_ANOMALY   = 20.5153

EPHEMERIS_TYPE = 0
CLASSIFICATION_TYPE = U
NORAD_CAT_ID   = 20262
ELEMENT_SET_NO = 999
REV_AT_EPOCH   = 65200
BSTAR          = .16082E-3
MEAN_MOTION_DOT = .537E-5
MEAN_MOTION_DDOT = 0

CCSDS_OMM_VERS = 2.0
CREATION_DATE  = 
ORIGINATOR     = 

OBJECT_NAME    = DELTA 1 R/B
OBJECT_ID      = 1989-089B
CENTER_NAME    = EARTH
REF_FRAME      = TEME
TIME_SYSTEM    = UTC
MEAN_ELEMENT_THEORY = SGP/SGP4

EPOCH          = 2026-01-03T12:08:48.145056
MEAN_MOTION    = 14.50595151
ECCENTRICITY   = .0068377
INCLINATION    = 97.0739
RA_OF_ASC_NODE = 221.2930
ARG_OF_PERICENTER = 329.7501
MEAN_ANOMALY   = 29.9757

EPHEMERIS_TYPE = 0
CLASSIFICATION_TYPE = U
NORAD_CAT_ID   = 20323
ELEMENT_SET_NO = 999
REV_AT_EPOCH   = 88628
BSTAR          = .19663E-3
MEAN_MOTION_DOT = .758E-5
MEAN_MOTION_DDOT = 0

CCSDS_OMM_VERS = 2.0
CREATION_DATE  = 
ORIGINATOR     = 

OBJECT_NAME    = ARIANE 40 R/B
OBJECT_ID      = 1990-005H
CENTER_NAME    = EARTH
REF_FRAME      = TEME
TIME_SYSTEM    = UTC
MEAN_ELEMENT_THEORY = SGP/SGP4

EPOCH          = 2026-01-03T10:06:46.473408
MEAN_MOTION    = 14.39818323
ECCENTRICITY   = .0010787
INCLINATION    = 98.3211
RA_OF_ASC_NODE = 65.9833
ARG_OF_PERICENTER = 45.9954
MEAN_ANOMALY   = 314.2122

EPHEMERIS_TYPE = 0
CLASSIFICATION_TYPE = U
NORAD_CAT_ID   = 20443
ELEMENT_SET_NO = 999
REV_AT_EPOCH   = 88341
BSTAR          = .21607E-3
MEAN_MOTION_DOT = .636E-5
MEAN_MOTION_DDOT = 0

