COSMOS 1933             
1 18958U 88020A   26003.31939017  .00008260  00000+0  41234-3 0  9995
2 18958  82.5153 315.5542 0006159  73.6526 286.5384 15.17341778 40310
SL-3 R/B                
1 19046U 88032B   26003.47050487  .00009179  00000+0  43699-3 0  9996
2 19046  97.5096 347.0457 0028468 100.5687 259.8756 15.19012312 42208
SL-16 R/B               
1 19120U 88039B   26003.02699292  .00000273  00000+0  15165-3 0  9993
2 19120  71.0133 207.3891 0019553  79.7087 280.6242 14.19601682949061
COSMOS 1953             
1 19210U 88050A   25363.34859606  .00008063  00000+0  30114-3 0  9992
2 19210  82.5080 228.9139 0012535  18.6006 341.5688 15.27141359 27045
SL-8 R/B                
1 19257U 88053B   26003.03262329  .00000486  00000+0  16608-3 0  9997
2 19257  74.0462 233.4772 0019013  69.5912  35.6236 14.38874870967156
COSMOS 1975             
1 19573U 88093A   26003.47648544  .00012178  00000+0  45944-3 0  9993
2 19573  82.5186 183.0624 0012541  43.9680 316.2554 15.26841942  9450
SL-14 R/B               
1 19574U 88093B   26003.52175667  .00001025  00000+0  11541-3 0  9996
2 19574  82.5319 103.2275 0019327 252.6148 118.0770 14.85579587991367
SL-16 R/B               
1 19650U 88102B   26003.21420920 -.00000160  00000+0 -56519-4 0  9999
2 19650  71.0003 289.2598 0011950 114.8647 245.3720 14.16142276917626
INTERCOSMOS 24          
1 20261U 89080A   26003.43203560  .00000900  00000+0  25611-3 0  9996
2 20261  82.6069 146.8514 1188902  84.2204 289.2899 12.59476387658583
SL-14 R/B               
1 20262U 89080C   26003.50560157  .00000537  00000+0  16082-3 0  9991
2 20262  82.5912 215.0458 1230156 333.8454  20.5153 12.50432309652002
DELTA 1 R/B             
1 20323U 89089B   26003.50611279  .00000758  00000+0  19663-3 0  9993
2 20323  97.0739 221.2930 0068377 329.7501  29.9757 14.50595151886281
ARIANE 40 R/B           
1 20443U 90005H   26003.42137122  .00000636  00000+0  21607-3 0  9993
2 20443  98.3211  65.9833 0010787  45.9954 314.2122 14.39818323883413
